STARLINK-30380          
1 57780U 23134K   26068.66358598 -.00002094  00000+0 -66602-4 0  9992
2 57780  43.0014 194.5511 0001768 269.1236  90.9413 15.27567352139505
FLOCK 4G-23             
1 62647U 25009AQ  26068.71663397  .00012440  00000+0  46816-3 0  9993
2 62647  97.3979 150.9478 0000905   7.2707 352.8545 15.27262579 63728
